STARLINK-36697          
1 67698U 26025F   26065.57145680  .00542791  00000+0  26439-2 0  9999
2 67698  97.2842 177.0661 0004852 102.3152 257.8659 15.80963251  5457
STARLINK-36716          
1 67699U 26025G   26065.58334491  .00017378  00000+0  11727-3 0  9994
2 67699  97.2841 177.0561 0001329  98.0661 280.2519 15.75164815  5513
STARLINK-36712          
1 67700U 26025H   26065.53637364  .00478076  00000+0  30154-2 0  9997
2 67700  97.2851 176.9588 0001126 359.6609   0.4656 15.75301259  5448
STARLINK-36713          
1 67701U 26025J   26065.47460554  .00211044  00000+0  13747-2 0  9995
2 67701  97.2851 176.8886 0000480  12.8637 347.2640 15.75297661  5446
STARLINK-36695          
1 67702U 26025K   26065.47672457  .00318530  00000+0  20469-2 0  9990
2 67702  97.2858 176.8853 0001369  49.9976 310.1409 15.75312473  5432
STARLINK-36630          
1 67703U 26025L   26065.62799856 -.00950061  00000+0 -65066-2 0  9996
2 67703  97.2847 177.1413 0001129  52.7921 307.3448 15.77217633  5461
STARLINK-36338          
1 67704U 26025M   26065.58225387  .00231081  00000+0  15032-2 0  9995
2 67704  97.2839 177.0469 0001352  86.1605 273.9815 15.75272259  5459
STARLINK-36316          
1 67705U 26025N   26065.52860238  .00240733  00000+0  15615-2 0  9991
2 67705  97.2854 176.9686 0003437 122.9225 237.2371 15.75309580  5446
STARLINK-36707          
1 67706U 26025P   26065.25473742  .00403044  00000+0  25623-2 0  9998
2 67706  97.2848 176.7289 0000772 132.8286 227.3045 15.75325851  5406
STARLINK-36645          
1 67707U 26025Q   26065.27838074  .00157611  00000+0  10373-2 0  9996
2 67707  97.2851 176.6968 0000786  39.3582 320.7740 15.75209940  5409
STARLINK-36287          
1 67708U 26025R   26065.58334491  .00013250  00000+0  89639-4 0  9998
2 67708  97.2844 177.1034 0001499  84.1132  48.1973 15.75170535  5511
STARLINK-36698          
1 67709U 26025S   26065.58334491 -.00022733  00000+0 -15194-3 0  9991
2 67709  97.2854 177.1216 0001425  73.1181 103.1757 15.75191528  5366
